CSS (TIANHE)            
1 48274U 21035A   23257.38021372  .00037239  00000+0  41219-3 0  9994
2 48274  41.4750 333.3748 0008755  12.6649 347.4409 15.62214761135771
